{
    "links": {
        "self": "http://www.neowsapp.com/rest/v1/neo/3449114?api_key=iIulBulltgU6a56xZRHN4H3l9WmuAYTsLGpBGhQ2"
    },
    "id": "3449114",
    "neo_reference_id": "3449114",
    "name": "(2009 EP)",
    "designation": "2009 EP",
    "nasa_jpl_url": "http://ssd.jpl.nasa.gov/sbdb.cgi?sstr=3449114",
    "absolute_magnitude_h": 23.8,
    "estimated_diameter": {
        "kilometers": {
            "estimated_diameter_min": 0.046190746,
            "estimated_diameter_max": 0.1032856481
        },
        "meters": {
            "estimated_diameter_min": 46.1907460282,
            "estimated_diameter_max": 103.2856480504
        },
        "miles": {
            "estimated_diameter_min": 0.0287015901,
            "estimated_diameter_max": 0.0641787064
        },
        "feet": {
            "estimated_diameter_min": 151.544447199,
            "estimated_diameter_max": 338.8636855496
        }
    },
    "is_potentially_hazardous_asteroid": false,
    "close_approach_data": [
        {
            "close_approach_date": "2009-03-10",
            "close_approach_date_full": "2009-Mar-10 14:01",
            "epoch_date_close_approach": 1236693660000,
            "relative_velocity": {
                "kilometers_per_second": "12.0527194872",
                "kilometers_per_hour": "43389.7901537954",
                "miles_per_hour": "26960.7282208403"
            },
            "miss_distance": {
                "astronomical": "0.0319842256",
                "lunar": "12.4418637584",
                "kilometers": "4784772.023359472",
                "miles": "2973119.4699338336"
            },
            "orbiting_body": "Earth"
        }
    ],
    "orbital_data": {
        "orbit_id": "7",
        "orbit_determination_date": "2017-04-06 09:01:08",
        "first_observation_date": "2009-03-02",
        "last_observation_date": "2009-03-08",
        "data_arc_in_days": 6,
        "observations_used": 27,
        "orbit_uncertainty": "8",
        "minimum_orbit_intersection": ".0283999",
        "jupiter_tisserand_invariant": "3.686",
        "epoch_osculation": "2454893.5",
        "eccentricity": ".5542415635470417",
        "semi_major_axis": "1.951109324726241",
        "inclination": "2.198444938323945",
        "ascending_node_longitude": "44.54616316120011",
        "orbital_period": "995.4531692795867",
        "perihelion_distance": ".8697234419387564",
        "perihelion_argument": "173.4907031202271",
        "aphelion_distance": "3.032495207513725",
        "perihelion_time": "2454935.940580575736",
        "mean_anomaly": "344.6516044362768",
        "mean_motion": ".3616443355748551",
        "equinox": "J2000",
        "orbit_class": {
            "orbit_class_type": "APO",
            "orbit_class_description": "Near-Earth asteroid orbits which cross the Earth’s orbit similar to that of 1862 Apollo",
            "orbit_class_range": "a (semi-major axis) > 1.0 AU; q (perihelion) < 1.017 AU"
        }
    },
    "is_sentry_object": false
}